[{"OBJECT_NAME":"STARLINK-31738","OBJECT_ID":"2024-074B","EPOCH":"2026-03-09T03:22:01.120800","MEAN_MOTION":15.27566278,"ECCENTRICITY":0.00017898,"INCLINATION":43.0029,"RA_OF_ASC_NODE":342.7991,"ARG_OF_PERICENTER":259.9964,"MEAN_ANOMALY":100.0686,"EPHEMERIS_TYPE":0,"CLASSIFICATION_TYPE":"U","NORAD_CAT_ID":59535,"ELEMENT_SET_NO":999,"REV_AT_EPOCH":10597,"BSTAR":-0.0001780043,"MEAN_MOTION_DOT":-5.155e-5,"MEAN_MOTION_DDOT":0},{"OBJECT_NAME":"DELTA 2 R\/B(1)","OBJECT_ID":"1999-003B","EPOCH":"2026-03-09T14:14:52.973952","MEAN_MOTION":11.92467197,"ECCENTRICITY":0.1771989,"INCLINATION":22.4394,"RA_OF_ASC_NODE":99.5797,"ARG_OF_PERICENTER":19.2717,"MEAN_ANOMALY":346.6979,"EPHEMERIS_TYPE":0,"CLASSIFICATION_TYPE":"U","NORAD_CAT_ID":25619,"ELEMENT_SET_NO":999,"REV_AT_EPOCH":1143,"BSTAR":0.00090127,"MEAN_MOTION_DOT":0.00034,"MEAN_MOTION_DDOT":-5.9226e-6}]
